{
  "type": "FeatureCollection",
  "features": [
    {
      "type": "Feature",
      "properties": {
        "norad_id": 29780,
        "name": "FENGYUN 1C DEB",
        "group": "fengyun-1c-debris",
        "lat": 12.610739398311717,
        "lon": 85.26297053240717,
        "alt_km": 797.1910742398159,
        "timestamp": "2025-12-08T10:52:03.218788+00:00",
        "meta_object_name": "FENGYUN 1C DEB",
        "meta_object_id": "1999-025BW",
        "meta_epoch": "2025-12-07T17:11:13.134336",
        "meta_mean_motion": 14.20987839,
        "meta_eccentricity": 0.0040126,
        "meta_inclination": 99.2777,
        "meta_ra_of_asc_node": 262.3941,
        "meta_arg_of_pericenter": 142.8188,
        "meta_mean_anomaly": 217.5778,
        "meta_ephemeris_type": 0,
        "meta_classification_type": "U",
        "meta_norad_cat_id": 29780,
        "meta_element_set_no": 999,
        "meta_rev_at_epoch": 97007,
        "meta_bstar": 0.0028675925,
        "meta_mean_motion_dot": 6.222e-05,
        "meta_mean_motion_ddot": 0,
        "tle_line1": "1 29780U 99025BW  25341.71612424  .00006222  00000+0  28676-2 0  9995",
        "tle_line2": "2 29780  99.2777 262.3941 0040126 142.8188 217.5778 14.20987839970072"
      },
      "geometry": {
        "type": "Point",
        "coordinates": [
          85.26297053240717,
          12.610739398311717
        ]
      }
    },
    {
      "type": "Feature",
      "properties": {
        "norad_id": 29781,
        "name": "FENGYUN 1C DEB",
        "group": "fengyun-1c-debris",
        "lat": 1.2471415950403435,
        "lon": -23.462613676174136,
        "alt_km": 930.3851559772684,
        "timestamp": "2025-12-08T10:52:03.218798+00:00",
        "meta_object_name": "FENGYUN 1C DEB",
        "meta_object_id": "1999-025BX",
        "meta_epoch": "2025-12-07T23:09:54.126720",
        "meta_mean_motion": 14.0521186,
        "meta_eccentricity": 0.00716334,
        "meta_inclination": 98.8093,
        "meta_ra_of_asc_node": 336.2572,
        "meta_arg_of_pericenter": 186.4838,
        "meta_mean_anomaly": 229.5269,
        "meta_ephemeris_type": 0,
        "meta_classification_type": "U",
        "meta_norad_cat_id": 29781,
        "meta_element_set_no": 999,
        "meta_rev_at_epoch": 96576,
        "meta_bstar": 0.00078633961,
        "meta_mean_motion_dot": 1.258e-05,
        "meta_mean_motion_ddot": 0,
        "tle_line1": "1 29781U 99025BX  25341.96520980  .00001258  00000+0  78634-3 0  9992",
        "tle_line2": "2 29781  98.8093 336.2572 0071633 186.4838 229.5269 14.05211860965768"
      },
      "geometry": {
        "type": "Point",
        "coordinates": [
          -23.462613676174136,
          1.2471415950403435
        ]
      }
    },
    {
      "type": "Feature",
      "properties": {
        "norad_id": 29782,
        "name": "FENGYUN 1C DEB",
        "group": "fengyun-1c-debris",
        "lat": -58.713617682349586,
        "lon": 51.280158108709436,
        "alt_km": 857.4432801482317,
        "timestamp": "2025-12-08T10:52:03.218809+00:00",
        "meta_object_name": "FENGYUN 1C DEB",
        "meta_object_id": "1999-025BY",
        "meta_epoch": "2025-12-07T16:59:31.447104",
        "meta_mean_motion": 14.11627405,
        "meta_eccentricity": 0.00552387,
        "meta_inclination": 99.0998,
        "meta_ra_of_asc_node": 35.2329,
        "meta_arg_of_pericenter": 216.7952,
        "meta_mean_anomaly": 259.7521,
        "meta_ephemeris_type": 0,
        "meta_classification_type": "U",
        "meta_norad_cat_id": 29782,
        "meta_element_set_no": 999,
        "meta_rev_at_epoch": 96600,
        "meta_bstar": 0.0022643357,
        "meta_mean_motion_dot": 4.131e-05,
        "meta_mean_motion_ddot": 0,
        "tle_line1": "1 29782U 99025BY  25341.70800286  .00004131  00000+0  22643-2 0  9996",
        "tle_line2": "2 29782  99.0998  35.2329 0055238 216.7952 259.7521 14.11627405966006"
      },
      "geometry": {
        "type": "Point",
        "coordinates": [
          51.280158108709436,
          -58.713617682349586
        ]
      }
    },
    {
      "type": "Feature",
      "properties": {
        "norad_id": 29784,
        "name": "FENGYUN 1C DEB",
        "group": "fengyun-1c-debris",
        "lat": 19.42212298229331,
        "lon": 84.3111754823406,
        "alt_km": 826.866495899033,
        "timestamp": "2025-12-08T10:52:03.218820+00:00",
        "meta_object_name": "FENGYUN 1C DEB",
        "meta_object_id": "1999-025CA",
        "meta_epoch": "2025-12-07T17:36:49.800672",
        "meta_mean_motion": 14.30561582,
        "meta_eccentricity": 0.00596785,
        "meta_inclination": 98.945,
        "meta_ra_of_asc_node": 260.3886,
        "meta_arg_of_pericenter": 312.1625,
        "meta_mean_anomaly": 108.1129,
        "meta_ephemeris_type": 0,
        "meta_classification_type": "U",
        "meta_norad_cat_id": 29784,
        "meta_element_set_no": 999,
        "meta_rev_at_epoch": 98288,
        "meta_bstar": 0.0010716469,
        "meta_mean_motion_dot": 2.804e-05,
        "meta_mean_motion_ddot": 0,
        "tle_line1": "1 29784U 99025CA  25341.73390973  .00002804  00000+0  10716-2 0  9991",
        "tle_line2": "2 29784  98.9450 260.3886 0059678 312.1625 108.1129 14.30561582982887"
      },
      "geometry": {
        "type": "Point",
        "coordinates": [
          84.3111754823406,
          19.42212298229331
        ]
      }
    },
    {
      "type": "Feature",
      "properties": {
        "norad_id": 29786,
        "name": "FENGYUN 1C DEB",
        "group": "fengyun-1c-debris",
        "lat": 70.0385846014159,
        "lon": -25.245191688909543,
        "alt_km": 880.470603471761,
        "timestamp": "2025-12-08T10:52:03.218831+00:00",
        "meta_object_name": "FENGYUN 1C DEB",
        "meta_object_id": "1999-025CC",
        "meta_epoch": "2025-12-07T22:56:22.414272",
        "meta_mean_motion": 14.09079562,
        "meta_eccentricity": 0.00771816,
        "meta_inclination": 98.736,
        "meta_ra_of_asc_node": 359.3188,
        "meta_arg_of_pericenter": 316.7258,
        "meta_mean_anomaly": 114.7778,
        "meta_ephemeris_type": 0,
        "meta_classification_type": "U",
        "meta_norad_cat_id": 29786,
        "meta_element_set_no": 999,
        "meta_rev_at_epoch": 97093,
        "meta_bstar": 0.00022623156,
        "meta_mean_motion_dot": 3.6e-06,
        "meta_mean_motion_ddot": 0,
        "tle_line1": "1 29786U 99025CC  25341.95581498  .00000360  00000+0  22623-3 0  9997",
        "tle_line2": "2 29786  98.7360 359.3188 0077181 316.7258 114.7778 14.09079562970936"
      },
      "geometry": {
        "type": "Point",
        "coordinates": [
          -25.245191688909543,
          70.0385846014159
        ]
      }
    },
    {
      "type": "Feature",
      "properties": {
        "norad_id": 29788,
        "name": "FENGYUN 1C DEB",
        "group": "fengyun-1c-debris",
        "lat": 72.58166898530678,
        "lon": -96.40599339890362,
        "alt_km": 801.4581500630275,
        "timestamp": "2025-12-08T10:52:03.218842+00:00",
        "meta_object_name": "FENGYUN 1C DEB",
        "meta_object_id": "1999-025CE",
        "meta_epoch": "2025-12-07T18:07:15.604608",
        "meta_mean_motion": 14.25915488,
        "meta_eccentricity": 0.00429352,
        "meta_inclination": 98.7841,
        "meta_ra_of_asc_node": 53.3667,
        "meta_arg_of_pericenter": 203.0621,
        "meta_mean_anomaly": 282.6343,
        "meta_ephemeris_type": 0,
        "meta_classification_type": "U",
        "meta_norad_cat_id": 29788,
        "meta_element_set_no": 999,
        "meta_rev_at_epoch": 97284,
        "meta_bstar": 0.0026849924,
        "meta_mean_motion_dot": 6.419e-05,
        "meta_mean_motion_ddot": 0,
        "tle_line1": "1 29788U 99025CE  25341.75504172  .00006419  00000+0  26850-2 0  9997",
        "tle_line2": "2 29788  98.7841  53.3667 0042935 203.0621 282.6343 14.25915488972845"
      },
      "geometry": {
        "type": "Point",
        "coordinates": [
          -96.40599339890362,
          72.58166898530678
        ]
      }
    },
    {
      "type": "Feature",
      "properties": {
        "norad_id": 29789,
        "name": "FENGYUN 1C DEB",
        "group": "fengyun-1c-debris",
        "lat": -79.04452975180689,
        "lon": -135.19389121293585,
        "alt_km": 848.4464996214911,
        "timestamp": "2025-12-08T10:52:03.218852+00:00",
        "meta_object_name": "FENGYUN 1C DEB",
        "meta_object_id": "1999-025CF",
        "meta_epoch": "2025-12-05T10:52:30.940032",
        "meta_mean_motion": 13.54214224,
        "meta_eccentricity": 0.02983807,
        "meta_inclination": 99.452,
        "meta_ra_of_asc_node": 162.5558,
        "meta_arg_of_pericenter": 297.1839,
        "meta_mean_anomaly": 122.7571,
        "meta_ephemeris_type": 0,
        "meta_classification_type": "U",
        "meta_norad_cat_id": 29789,
        "meta_element_set_no": 999,
        "meta_rev_at_epoch": 92889,
        "meta_bstar": 0.0021158118,
        "meta_mean_motion_dot": 1.866e-05,
        "meta_mean_motion_ddot": 0,
        "tle_line1": "1 29789U 99025CF  25339.45313588  .00001866  00000+0  21158-2 0  9998",
        "tle_line2": "2 29789  99.4520 162.5558 0298380 297.1839 122.7571 13.54214224928896"
      },
      "geometry": {
        "type": "Point",
        "coordinates": [
          -135.19389121293585,
          -79.04452975180689
        ]
      }
    }
  ]
}